OBJECT_NAME,OBJECT_ID,EPOCH,MEAN_MOTION,ECCENTRICITY,INCLINATION,RA_OF_ASC_NODE,ARG_OF_PERICENTER,MEAN_ANOMALY,EPHEMERIS_TYPE,CLASSIFICATION_TYPE,NORAD_CAT_ID,ELEMENT_SET_NO,REV_AT_EPOCH,BSTAR,MEAN_MOTION_DOT,MEAN_MOTION_DDOT
STARLINK-34889,2025-216AD,2026-05-24T22:18:42.674976,15.30209074,.0001005,53.1623,338.9479,77.0006,283.1107,0,U,65761,999,3826,.94086E-3,.27618E-3,0
KUIPER-00120,2025-217A,2026-05-25T04:24:39.383424,14.79940952,.0000725,51.8991,74.8028,90.0711,270.0335,0,U,65762,999,3606,.49567E-3,.356E-4,0
KUIPER-00132,2025-217B,2026-05-24T22:45:11.454336,15.41910214,.0005789,51.8566,352.5884,229.2064,130.8423,0,U,65763,999,3718,.64908E-3,.27741E-3,0
KUIPER-00133,2025-217C,2026-05-25T01:58:49.317600,14.79937827,.000074,51.9027,75.3379,77.7647,282.3398,0,U,65764,999,3605,.13503E-3,.808E-5,0
KUIPER-00139,2025-217D,2026-05-25T03:36:52.215840,15.02295863,.000752,51.8843,43.6042,195.6337,164.4404,0,U,65765,999,3650,-.21975E-2,-.2952E-3,0
KUIPER-00142,2025-217E,2026-05-25T04:51:51.375744,14.79929651,.000084,51.9003,57.2450,93.7042,266.4017,0,U,65766,999,3631,.53013E-3,.3822E-4,0
KUIPER-00145,2025-217F,2026-05-25T04:47:58.113024,14.79935293,.0000767,51.9001,59.7747,95.1031,265.0019,0,U,65767,999,3627,.88857E-4,.456E-5,0
KUIPER-00147,2025-217G,2026-05-25T03:55:27.892128,14.79941627,.0001171,51.8994,62.4232,73.3054,286.8036,0,U,65768,999,3623,.50284E-3,.3615E-4,0
KUIPER-00148,2025-217H,2026-05-25T02:54:44.043840,14.75842796,.000104,51.9054,43.7712,104.8459,255.2616,0,U,65769,999,3649,.44661E-3,.2879E-4,0
KUIPER-00150,2025-217J,2026-05-25T00:25:27.221088,14.79937949,.0001017,51.9011,73.0907,102.1272,257.9804,0,U,65770,999,3607,.6672E-4,.287E-5,0
KUIPER-00151,2025-217K,2026-05-25T03:51:35.489952,14.79938990,.0001108,51.9009,64.9549,80.5507,279.5581,0,U,65771,999,3620,.27298E-3,.1861E-4,0
KUIPER-00152,2025-217L,2026-05-25T03:22:23.246112,14.79932623,.0001023,51.9004,52.5323,85.7010,274.4069,0,U,65772,999,3637,.19186E-3,.1242E-4,0
KUIPER-00153,2025-217M,2026-05-25T00:15:52.271424,14.79917292,.0000932,51.9032,48.1724,108.7087,251.3977,0,U,65773,999,3642,.41925E-3,.2975E-4,0
KUIPER-00155,2025-217N,2026-05-24T21:43:53.942016,14.79934854,.0001023,51.9043,21.1030,127.6143,232.4912,0,U,65774,999,3679,-.1665E-3,-.149E-4,0
KUIPER-00156,2025-217P,2026-05-25T02:41:32.267328,14.79932070,.0000792,51.9035,47.7053,101.4410,258.6641,0,U,65775,999,3643,.10997E-3,.617E-5,0
KUIPER-00163,2025-217R,2026-05-25T03:00:38.181024,15.81576686,.0002337,51.8952,25.3503,167.3085,192.7980,0,U,65777,999,3674,.60603E-3,.124858E-2,0
KUIPER-00165,2025-217S,2026-05-25T04:03:14.010624,14.79939048,.0001042,51.9027,57.4095,95.8272,264.2809,0,U,65778,999,3630,.23402E-3,.1563E-4,0
KUIPER-00166,2025-217T,2026-05-25T00:19:32.900736,14.79930676,.0000783,51.9034,45.6360,104.3793,255.7257,0,U,65779,999,3645,-.84939E-4,-.869E-5,0
KUIPER-00167,2025-217U,2026-05-25T03:47:41.383968,14.79938296,.0000872,51.8965,67.3893,94.7608,265.3454,0,U,65780,999,3616,.25117E-3,.1694E-4,0
KUIPER-00168,2025-217V,2026-05-25T04:14:52.996992,14.79938939,.00009,51.9012,49.8774,100.4937,259.6126,0,U,65781,999,3641,.26644E-3,.1811E-4,0
KUIPER-00169,2025-217W,2026-05-25T00:52:38.231904,14.79936748,.0000897,51.9024,55.5058,93.7021,266.4044,0,U,65782,999,3632,.19406E-3,.1259E-4,0
KUIPER-00170,2025-217X,2026-05-25T00:44:51.098208,14.79924222,.0000795,51.8995,60.4986,99.3873,260.7179,0,U,65783,999,3625,.45599E-3,.3256E-4,0
KUIPER-00172,2025-217Z,2026-05-25T00:07:52.667616,14.76654388,.0000995,51.8985,43.0278,174.4515,185.6457,0,U,65785,999,3649,.28369E-3,.1787E-4,0
KUIPER-00173,2025-217AA,2026-05-25T03:18:29.932416,14.79938521,.0001199,51.9008,55.0558,72.0112,288.0980,0,U,65786,999,3633,.27516E-3,.1877E-4,0
KUIPER-00174,2025-217AB,2026-05-25T00:11:47.934816,14.79956818,.0001194,51.9031,50.6674,98.1849,261.9249,0,U,65787,999,3638,.4497E-3,.321E-4,0
KUIPER-00176,2025-217AC,2026-05-25T04:40:12.436032,14.79933811,.0000949,51.9004,64.7934,102.8857,257.2211,0,U,65788,999,3620,-.11294E-3,-.1082E-4,0
STARLINK-35330,2025-218A,2026-05-25T02:31:19.285248,15.05659189,.000115,97.4536,7.8278,71.7180,288.4173,0,U,65791,999,3646,.21158E-3,.2996E-4,0
STARLINK-35373,2025-218B,2026-05-25T03:19:11.199648,15.05656726,.0002672,97.4504,7.9386,77.1180,283.0346,0,U,65792,999,3647,.26577E-3,.3779E-4,0
STARLINK-35383,2025-218C,2026-05-25T02:55:15.637728,15.05661673,.0002012,97.4522,7.9583,101.1158,259.0295,0,U,65793,999,3647,.41234E-3,.5898E-4,0
STARLINK-35378,2025-218D,2026-05-25T02:19:21.885312,15.05665538,.0002278,97.4543,7.8408,64.8597,295.2866,0,U,65794,999,3646,.12522E-3,.1749E-4,0
