STARLINK-34889          
1 65761U 25216AD  26144.92966059  .00027618  00000+0  94086-3 0  9997
2 65761  53.1623 338.9479 0001005  77.0006 283.1107 15.30209074 38268
KUIPER-00120            
1 65762U 25217A   26145.18378916  .00003560  00000+0  49567-3 0  9991
2 65762  51.8991  74.8028 0000725  90.0711 270.0335 14.79940952 36067
KUIPER-00132            
1 65763U 25217B   26144.94804924  .00027741  00000+0  64908-3 0  9991
2 65763  51.8566 352.5884 0005789 229.2064 130.8423 15.41910214 37187
KUIPER-00133            
1 65764U 25217C   26145.08251525  .00000808  00000+0  13503-3 0  9991
2 65764  51.9027  75.3379 0000740  77.7647 282.3398 14.79937827 36053
KUIPER-00139            
1 65765U 25217D   26145.15060435 -.00029520  00000+0 -21975-2 0  9993
2 65765  51.8843  43.6042 0007520 195.6337 164.4404 15.02295863 36505
KUIPER-00142            
1 65766U 25217E   26145.20267796  .00003822  00000+0  53013-3 0  9993
2 65766  51.9003  57.2450 0000840  93.7042 266.4017 14.79929651 36312
KUIPER-00145            
1 65767U 25217F   26145.19997816  .00000456  00000+0  88857-4 0  9990
2 65767  51.9001  59.7747 0000767  95.1031 265.0019 14.79935293 36270
KUIPER-00147            
1 65768U 25217G   26145.16351727  .00003615  00000+0  50284-3 0  9995
2 65768  51.8994  62.4232 0001171  73.3054 286.8036 14.79941627 36238
KUIPER-00148            
1 65769U 25217H   26145.12134310  .00002879  00000+0  44661-3 0  9992
2 65769  51.9054  43.7712 0001040 104.8459 255.2616 14.75842796 36491
KUIPER-00150            
1 65770U 25217J   26145.01767617  .00000287  00000+0  66720-4 0  9996
2 65770  51.9011  73.0907 0001017 102.1272 257.9804 14.79937949 36077
KUIPER-00151            
1 65771U 25217K   26145.16082743  .00001861  00000+0  27298-3 0  9998
2 65771  51.9009  64.9549 0001108  80.5507 279.5581 14.79938990 36201
KUIPER-00152            
1 65772U 25217L   26145.14054683  .00001242  00000+0  19186-3 0  9999
2 65772  51.9004  52.5323 0001023  85.7010 274.4069 14.79932623 36372
KUIPER-00153            
1 65773U 25217M   26145.01102166  .00002975  00000+0  41925-3 0  9996
2 65773  51.9032  48.1724 0000932 108.7087 251.3977 14.79917292 36421
KUIPER-00155            
1 65774U 25217N   26144.90548544 -.00001490  00000+0 -16650-3 0  9998
2 65774  51.9043  21.1030 0001023 127.6143 232.4912 14.79934854 36792
KUIPER-00156            
1 65775U 25217P   26145.11217902  .00000617  00000+0  10997-3 0  9990
2 65775  51.9035  47.7053 0000792 101.4410 258.6641 14.79932070 36430
KUIPER-00163            
1 65777U 25217R   26145.12544191  .00124858  00000+0  60603-3 0  9999
2 65777  51.8952  25.3503 0002337 167.3085 192.7980 15.81576686 36746
KUIPER-00165            
1 65778U 25217S   26145.16891216  .00001563  00000+0  23402-3 0  9990
2 65778  51.9027  57.4095 0001042  95.8272 264.2809 14.79939048 36306
KUIPER-00166            
1 65779U 25217T   26145.01357524 -.00000869  00000+0 -84939-4 0  9997
2 65779  51.9034  45.6360 0000783 104.3793 255.7257 14.79930676 36450
KUIPER-00167            
1 65780U 25217U   26145.15811787  .00001694  00000+0  25117-3 0  9997
2 65780  51.8965  67.3893 0000872  94.7608 265.3454 14.79938296 36162
KUIPER-00168            
1 65781U 25217V   26145.17700228  .00001811  00000+0  26644-3 0  9994
2 65781  51.9012  49.8774 0000900 100.4937 259.6126 14.79938939 36416
KUIPER-00169            
1 65782U 25217W   26145.03655361  .00001259  00000+0  19406-3 0  9991
2 65782  51.9024  55.5058 0000897  93.7021 266.4044 14.79936748 36323
KUIPER-00170            
1 65783U 25217X   26145.03114697  .00003256  00000+0  45599-3 0  9995
2 65783  51.8995  60.4986 0000795  99.3873 260.7179 14.79924222 36251
KUIPER-00172            
1 65785U 25217Z   26145.00547069  .00001787  00000+0  28369-3 0  9990
2 65785  51.8985  43.0278 0000995 174.4515 185.6457 14.76654388 36493
KUIPER-00173            
1 65786U 25217AA  26145.13784644  .00001877  00000+0  27516-3 0  9990
2 65786  51.9008  55.0558 0001199  72.0112 288.0980 14.79938521 36337
KUIPER-00174            
1 65787U 25217AB  26145.00819369  .00003210  00000+0  44970-3 0  9996
2 65787  51.9031  50.6674 0001194  98.1849 261.9249 14.79956818 36387
KUIPER-00176            
1 65788U 25217AC  26145.19458838 -.00001082  00000+0 -11294-3 0  9997
2 65788  51.9004  64.7934 0000949 102.8857 257.2211 14.79933811 36208
STARLINK-35330          
1 65791U 25218A   26145.10508432  .00002996  00000+0  21158-3 0  9992
2 65791  97.4536   7.8278 0001150  71.7180 288.4173 15.05659189 36468
STARLINK-35373          
1 65792U 25218B   26145.13832407  .00003779  00000+0  26577-3 0  9998
2 65792  97.4504   7.9386 0002672  77.1180 283.0346 15.05656726 36473
STARLINK-35383          
1 65793U 25218C   26145.12170877  .00005898  00000+0  41234-3 0  9995
2 65793  97.4522   7.9583 0002012 101.1158 259.0295 15.05661673 36477
STARLINK-35378          
1 65794U 25218D   26145.09678108  .00001749  00000+0  12522-3 0  9991
2 65794  97.4543   7.8408 0002278  64.8597 295.2866 15.05665538 36461
